STARLINK-1998           
1 47593U 21009AX  21274.95255394  .00001668  00000-0  13086-3 0  9990
2 47593  53.0553 112.9121 0001974  97.1628 262.9585 15.06402007 36384
STARLINK-1999           
1 47594U 21009AY  21274.91938606  .00000187  00000-0  31458-4 0  9990
2 47594  53.0553 113.0505 0001732  85.9431 274.1756 15.06404035 36379
STARLINK-2000           
1 47595U 21009AZ  21275.03732929  .00001415  00000-0  11387-3 0  9998
2 47595  53.0565 112.5257 0002030  81.1012 279.0207 15.06399375 36393
STARLINK-2001           
1 47596U 21009BA  21275.04102578 -.00000736  00000-0 -30494-4 0  9999
2 47596  53.0553 112.5042 0002062  95.7409 264.3816 15.06394946 36391
STARLINK-2002           
1 47597U 21009BB  21274.96732098  .00003319  00000-0  24161-3 0  9997
2 47597  53.0544 112.8384 0002303  81.8734 278.2516 15.06400996 36382
STARLINK-2003           
1 47598U 21009BC  21275.44187341  .00000003  00000-0  19096-4 0  9996
2 47598  53.0687  80.6522 0001891  93.5384 266.5821 15.06395922 37493
STARLINK-2004           
1 47599U 21009BD  21275.16633422  .00001813  00000-0  14057-3 0  9993
2 47599  53.0566  71.9302 0002012  93.2210 266.9009 15.06407343 36975
STARLINK-2005           
1 47600U 21009BE  21275.12855082  .00001171  00000-0  97679-4 0  9999
2 47600  53.0633  72.0828 0010312 121.5690 238.6307 15.06400634 36970
STARLINK-2006           
1 47601U 21009BF  21275.17003066  .00002012  00000-0  15391-3 0  9997
2 47601  53.0563  71.9130 0001955  93.5274 266.5938 15.06400133 36970
STARLINK-2007           
1 47602U 21009BG  21275.19122789 -.00000002  00000-0  18762-4 0  9998
2 47602  53.0528  81.8261 0001932  87.2127 272.9083 15.06395458 36839
STARLINK-2008           
1 47603U 21009BH  21275.00416860  .00001453  00000-0  11648-3 0  9990
2 47603  53.0544 112.6565 0002016  87.6785 272.4435 15.06390273 36382
STARLINK-2021           
1 47604U 21009BJ  21275.19859518  .00001472  00000-0  11767-3 0  9995
2 47604  53.0562  81.7979 0002200  84.0997 276.0243 15.06405620 36840
STARLINK-2023           
1 47605U 21009BK  21275.19491345 -.00000398  00000-0 -78122-5 0  9994
2 47605  53.0528  81.8136 0002289  85.5004 274.6247 15.06392715 36838
STARLINK-2024           
1 47606U 21009BL  21275.46766767 -.00000504  00000-0 -14925-4 0  9997
2 47606  53.0537  80.5704 0002263  93.4241 266.7006 15.06397461 37489
STARLINK-2025           
1 47607U 21009BM  21275.44554454  .00001181  00000-0  98167-4 0  9994
2 47607  53.0557  80.6969 0001998  87.1517 272.9701 15.06403056 37474
FLOCK 4S-42             
1 47612U 21006EQ  21275.18210630  .00001550  00000-0  91219-4 0  9994
2 47612  97.4828 334.4687 0013089 101.4260 258.8442 15.13038151 38181
TJS-6                   
1 47613U 21010A   21275.24804186  .00000039  00000-0  00000-0 0  9997
2 47613   0.4554 281.5676 0002038 338.3960  19.0444  1.00268887  2599
ARCE-1B                 
1 47615U 21006EG  21275.10828389  .00005024  00000-0  28604-3 0  9992
2 47615  97.4792 334.2682 0011406  98.3361 261.9164 15.13221926 37251
ARCE-1A                 
1 47616U 21006EH  21275.43726196  .00003750  00000-0  21434-3 0  9990
2 47616  97.4794 334.5966 0011437  97.4592 262.7939 15.13240467 38220
FLOCK 4S-48             
1 47617U 21006EJ  21275.18265392  .00001541  00000-0  89977-4 0  9992
2 47617  97.4815 334.5794 0013581  84.2315 276.0465 15.13331015 39169
STARLINK-1528           
1 47620U 21012A   21275.06405538 -.00000129  00000-0  10219-4 0  9993
2 47620  53.0556 142.4054 0001583  71.6222 288.4939 15.06397527 35862
STARLINK-1609           
1 47621U 21012B   21275.32207500  .00000124  00000-0  27251-4 0  9990
2 47621  53.0549 141.2371 0001898  86.8261 273.2945 15.06394748 35393
STARLINK-1645           
1 47622U 21012C   21275.05300221  .00000101  00000-0  25678-4 0  9991
2 47622  53.0543 142.4382 0001647  72.2920 287.8249 15.06391987 35868
STARLINK-1655           
1 47623U 21012D   21274.73278149 -.00000541  00000-0 -17428-4 0  9993
2 47623  53.0556  78.8734 0002031 100.4359 259.6859 15.06402604 36734
STARLINK-1669           
1 47624U 21012E   21275.05853082  .00000186  00000-0  31372-4 0  9992
2 47624  53.0549 122.4164 0001795  88.2955 271.8240 15.06400825 36161
STARLINK-1704           
1 47625U 21012F   21274.92768355 -.00000188  00000-0  63066-5 0  9995
2 47625  53.0543 143.0074 0001920  77.0599 283.0604 15.06398456 35844
STARLINK-1761           
1 47626U 21012G   21274.97927554  .00000051  00000-0  22357-4 0  9994
2 47626  53.0543 142.7660 0002095  83.5698 276.5529 15.06392466 35857
STARLINK-1972           
1 47627U 21012H   21275.33334491 -.01091421  00000-0 -26008-1 0  9996
2 47627  53.0414  48.5549 0001417  45.2595  12.2616 15.43624440  3681
STARLINK-1973           
1 47628U 21012J   21275.34786983  .00001647  00000-0  12942-3 0  9997
2 47628  53.0560 141.1269 0001756  83.7548 276.3641 15.06406387 35395
STARLINK-1974           
1 47629U 21012K   21275.58334491 -.00091839  00000-0 -65507-3 0  9996
2 47629  53.0421  46.0855 0004694 339.2615   6.5201 15.73248333 36748
STARLINK-1983           
1 47630U 21012L   21275.01336160 -.00000434  00000-0 -10244-4 0  9991
2 47630  53.0537 122.6123 0002172  81.6351 278.4884 15.06388188 36129
