OBJECT_NAME,OBJECT_ID,EPOCH,MEAN_MOTION,ECCENTRICITY,INCLINATION,RA_OF_ASC_NODE,ARG_OF_PERICENTER,MEAN_ANOMALY,EPHEMERIS_TYPE,CLASSIFICATION_TYPE,NORAD_CAT_ID,ELEMENT_SET_NO,REV_AT_EPOCH,BSTAR,MEAN_MOTION_DOT,MEAN_MOTION_DDOT
STARLINK-1998,2021-009AX,2021-10-01T22:51:40.660416,15.06402007,.0001974,53.0553,112.9121,97.1628,262.9585,0,U,47593,999,3638,.13086E-3,.1668E-4,0
STARLINK-1999,2021-009AY,2021-10-01T22:03:54.955584,15.06404035,.0001732,53.0553,113.0505,85.9431,274.1756,0,U,47594,999,3637,.31458E-4,.187E-5,0
STARLINK-2000,2021-009AZ,2021-10-02T00:53:45.250656,15.06399375,.000203,53.0565,112.5257,81.1012,279.0207,0,U,47595,999,3639,.11387E-3,.1415E-4,0
STARLINK-2001,2021-009BA,2021-10-02T00:59:04.627392,15.06394946,.0002062,53.0553,112.5042,95.7409,264.3816,0,U,47596,999,3639,-.30494E-4,-.736E-5,0
STARLINK-2002,2021-009BB,2021-10-01T23:12:56.532672,15.06400996,.0002303,53.0544,112.8384,81.8734,278.2516,0,U,47597,999,3638,.24161E-3,.3319E-4,0
STARLINK-2003,2021-009BC,2021-10-02T10:36:17.862624,15.06395922,.0001891,53.0687,80.6522,93.5384,266.5821,0,U,47598,999,3749,.19096E-4,.3E-7,0
STARLINK-2004,2021-009BD,2021-10-02T03:59:31.276608,15.06407343,.0002012,53.0566,71.9302,93.2210,266.9009,0,U,47599,999,3697,.14057E-3,.1813E-4,0
STARLINK-2005,2021-009BE,2021-10-02T03:05:06.790848,15.06400634,.0010312,53.0633,72.0828,121.5690,238.6307,0,U,47600,999,3697,.97679E-4,.1171E-4,0
STARLINK-2006,2021-009BF,2021-10-02T04:04:50.649024,15.06400133,.0001955,53.0563,71.9130,93.5274,266.5938,0,U,47601,999,3697,.15391E-3,.2012E-4,0
STARLINK-2007,2021-009BG,2021-10-02T04:35:22.089696,15.06395458,.0001932,53.0528,81.8261,87.2127,272.9083,0,U,47602,999,3683,.18762E-4,-.2E-7,0
STARLINK-2008,2021-009BH,2021-10-02T00:06:00.167040,15.06390273,.0002016,53.0544,112.6565,87.6785,272.4435,0,U,47603,999,3638,.11648E-3,.1453E-4,0
STARLINK-2021,2021-009BJ,2021-10-02T04:45:58.623552,15.06405620,.00022,53.0562,81.7979,84.0997,276.0243,0,U,47604,999,3684,.11767E-3,.1472E-4,0
STARLINK-2023,2021-009BK,2021-10-02T04:40:40.522080,15.06392715,.0002289,53.0528,81.8136,85.5004,274.6247,0,U,47605,999,3683,-.78122E-5,-.398E-5,0
STARLINK-2024,2021-009BL,2021-10-02T11:13:26.486688,15.06397461,.0002263,53.0537,80.5704,93.4241,266.7006,0,U,47606,999,3748,-.14925E-4,-.504E-5,0
STARLINK-2025,2021-009BM,2021-10-02T10:41:35.048256,15.06403056,.0001998,53.0557,80.6969,87.1517,272.9701,0,U,47607,999,3747,.98167E-4,.1181E-4,0
FLOCK 4S-42,2021-006EQ,2021-10-02T04:22:13.984320,15.13038151,.0013089,97.4828,334.4687,101.4260,258.8442,0,U,47612,999,3818,.91219E-4,.155E-4,0
TJS-6,2021-010A,2021-10-02T05:57:10.816704,1.00268887,.0002038,0.4554,281.5676,338.3960,19.0444,0,U,47613,999,259,0,.39E-6,0
ARCE-1B,2021-006EG,2021-10-02T02:35:55.728096,15.13221926,.0011406,97.4792,334.2682,98.3361,261.9164,0,U,47615,999,3725,.28604E-3,.5024E-4,0
ARCE-1A,2021-006EH,2021-10-02T10:29:39.433344,15.13240467,.0011437,97.4794,334.5966,97.4592,262.7939,0,U,47616,999,3822,.21434E-3,.375E-4,0
FLOCK 4S-48,2021-006EJ,2021-10-02T04:23:01.298688,15.13331015,.0013581,97.4815,334.5794,84.2315,276.0465,0,U,47617,999,3916,.89977E-4,.1541E-4,0
STARLINK-1528,2021-012A,2021-10-02T01:32:14.384832,15.06397527,.0001583,53.0556,142.4054,71.6222,288.4939,0,U,47620,999,3586,.10219E-4,-.129E-5,0
STARLINK-1609,2021-012B,2021-10-02T07:43:47.280000,15.06394748,.0001898,53.0549,141.2371,86.8261,273.2945,0,U,47621,999,3539,.27251E-4,.124E-5,0
STARLINK-1645,2021-012C,2021-10-02T01:16:19.390944,15.06391987,.0001647,53.0543,142.4382,72.2920,287.8249,0,U,47622,999,3586,.25678E-4,.101E-5,0
STARLINK-1655,2021-012D,2021-10-01T17:35:12.320736,15.06402604,.0002031,53.0556,78.8734,100.4359,259.6859,0,U,47623,999,3673,-.17428E-4,-.541E-5,0
STARLINK-1669,2021-012E,2021-10-02T01:24:17.062848,15.06400825,.0001795,53.0549,122.4164,88.2955,271.8240,0,U,47624,999,3616,.31372E-4,.186E-5,0
STARLINK-1704,2021-012F,2021-10-01T22:15:51.858720,15.06398456,.000192,53.0543,143.0074,77.0599,283.0604,0,U,47625,999,3584,.63066E-5,-.188E-5,0
STARLINK-1761,2021-012G,2021-10-01T23:30:09.406656,15.06392466,.0002095,53.0543,142.7660,83.5698,276.5529,0,U,47626,999,3585,.22357E-4,.51E-6,0
STARLINK-1972,2021-012H,2021-10-02T08:00:01.000224,15.43624440,.0001417,53.0414,48.5549,45.2595,12.2616,0,U,47627,999,368,-.26008E-1,-.1091421E-1,0
STARLINK-1973,2021-012J,2021-10-02T08:20:55.953312,15.06406387,.0001756,53.0560,141.1269,83.7548,276.3641,0,U,47628,999,3539,.12942E-3,.1647E-4,0
STARLINK-1974,2021-012K,2021-10-02T14:00:01.000224,15.73248333,.0004694,53.0421,46.0855,339.2615,6.5201,0,U,47629,999,3674,-.65507E-3,-.91839E-3,0
STARLINK-1983,2021-012L,2021-10-02T00:19:14.442240,15.06388188,.0002172,53.0537,122.6123,81.6351,278.4884,0,U,47630,999,3612,-.10244E-4,-.434E-5,0
